[{"OBJECT_NAME":"COSMOS 2576","OBJECT_ID":"2024-092A","EPOCH":"2026-03-09T19:49:29.705664","MEAN_MOTION":15.27760963,"ECCENTRICITY":0.0005946,"INCLINATION":97.4253,"RA_OF_ASC_NODE":186.0053,"ARG_OF_PERICENTER":159.7731,"MEAN_ANOMALY":200.3745,"EPHEMERIS_TYPE":0,"CLASSIFICATION_TYPE":"U","NORAD_CAT_ID":59773,"ELEMENT_SET_NO":999,"REV_AT_EPOCH":10127,"BSTAR":0.00056283,"MEAN_MOTION_DOT":0.00015211,"MEAN_MOTION_DDOT":0},{"OBJECT_NAME":"STARLINK-33941","OBJECT_ID":"2025-089Q","EPOCH":"2026-03-09T22:29:44.540448","MEAN_MOTION":15.27595221,"ECCENTRICITY":0.00027133,"INCLINATION":43.0019,"RA_OF_ASC_NODE":43.9862,"ARG_OF_PERICENTER":287.5994,"MEAN_ANOMALY":72.4561,"EPHEMERIS_TYPE":0,"CLASSIFICATION_TYPE":"U","NORAD_CAT_ID":63765,"ELEMENT_SET_NO":999,"REV_AT_EPOCH":4898,"BSTAR":0.0012558018,"MEAN_MOTION_DOT":0.00034474,"MEAN_MOTION_DDOT":0}]
